start=new Date('2021-10-30T00:00:00.000Z').valueOf();
sats=[{"MEAN_ELEMENT_THEORY":"SGP4","FILE":"3191844","TIME_SYSTEM":"UTC","MEAN_MOTION_DDOT":"0.0000000000000","APOAPSIS":"548.177","INCLINATION":"53.0563","OBJECT_NAME":"STARLINK-2711","ECCENTRICITY":"0.00013810","GP_ID":"188469560","PERIAPSIS":"546.264","OBJECT_TYPE":"PAYLOAD","MEAN_MOTION":"15.06397661","MEAN_ANOMALY":"266.0828","LAUNCH_DATE":"2021-05-26","OBJECT_ID":"2021-044AM","TLE_LINE1":"1 48673U 21044AM  21302.62382482  .00000408  00000-0  46280-4 0  9998","COUNTRY_CODE":"US","ARG_OF_PERICENTER":"94.0319","MEAN_MOTION_DOT":"0.00000408","TLE_LINE2":"2 48673  53.0563  58.6670 0001381  94.0319 266.0828 15.06397661 23880","SITE":"AFETR","EPHEMERIS_TYPE":"0","RA_OF_ASC_NODE":"58.6670","REV_AT_EPOCH":"2388","SEMIMAJOR_AXIS":"6925.356","ELEMENT_SET_NO":"999","EPOCH":"2021-10-29T14:58:18.464448","CLASSIFICATION_TYPE":"U","DECAY_DATE":null,"PERIOD":"95.592","BSTAR":"0.00004628000000","RCS_SIZE":"LARGE","CENTER_NAME":"EARTH","NORAD_CAT_ID":"48673","REF_FRAME":"TEME"},{"RCS_SIZE":"LARGE","NORAD_CAT_ID":"48674","CENTER_NAME":"EARTH","REF_FRAME":"TEME","DECAY_DATE":null,"PERIOD":"95.592","BSTAR":"0.00012259000000","RA_OF_ASC_NODE":"57.7899","EPOCH":"2021-10-29T19:39:36.545472","CLASSIFICATION_TYPE":"U","ELEMENT_SET_NO":"999","SEMIMAJOR_AXIS":"6925.341","REV_AT_EPOCH":"2391","TLE_LINE1":"1 48674U 21044AN  21302.81917298  .00001545  00000-0  12259-3 0  9990","COUNTRY_CODE":"US","MEAN_MOTION_DOT":"0.00001545","ARG_OF_PERICENTER":"89.9841","TLE_LINE2":"2 48674  53.0562  57.7899 0001233  89.9841 270.1289 15.06402438 23912","EPHEMERIS_TYPE":"0","SITE":"AFETR","OBJECT_TYPE":"PAYLOAD","PERIAPSIS":"546.352","GP_ID":"188469789","MEAN_MOTION":"15.06402438","MEAN_ANOMALY":"270.1289","LAUNCH_DATE":"2021-05-26","OBJECT_ID":"2021-044AN","APOAPSIS":"548.060","INCLINATION":"53.0562","OBJECT_NAME":"STARLINK-2712","ECCENTRICITY":"0.00012330","MEAN_ELEMENT_THEORY":"SGP4","FILE":"3191844","TIME_SYSTEM":"UTC","MEAN_MOTION_DDOT":"0.0000000000000"},{"REF_FRAME":"TEME","RCS_SIZE":"LARGE","NORAD_CAT_ID":"48675","CENTER_NAME":"EARTH","BSTAR":"-0.00002082200000","DECAY_DATE":null,"PERIOD":"95.592","CLASSIFICATION_TYPE":"U","EPOCH":"2021-10-29T19:34:18.297984","ELEMENT_SET_NO":"999","SEMIMAJOR_AXIS":"6925.338","REV_AT_EPOCH":"2391","RA_OF_ASC_NODE":"57.8087","TLE_LINE2":"2 48675  53.0574  57.8087 0001111  81.5909 278.5206 15.06403351 23910","EPHEMERIS_TYPE":"0","SITE":"AFETR","COUNTRY_CODE":"US","TLE_LINE1":"1 48675U 21044AP  21302.81548956 -.00000591  00000-0 -20822-4 0  9990","MEAN_MOTION_DOT":"-0.00000591","ARG_OF_PERICENTER":"81.5909","LAUNCH_DATE":"2021-05-26","MEAN_ANOMALY":"278.5206","OBJECT_ID":"2021-044AP","OBJECT_TYPE":"PAYLOAD","GP_ID":"188469323","PERIAPSIS":"546.434","MEAN_MOTION":"15.06403351","OBJECT_NAME":"STARLINK-2737","ECCENTRICITY":"0.00011110","APOAPSIS":"547.973","INCLINATION":"53.0574","TIME_SYSTEM":"UTC","MEAN_MOTION_DDOT":"0.0000000000000","MEAN_ELEMENT_THEORY":"SGP4","FILE":"3191844"},{"REF_FRAME":"TEME","RCS_SIZE":"LARGE","CENTER_NAME":"EARTH","NORAD_CAT_ID":"48676","BSTAR":"0.00007394300000","DECAY_DATE":null,"PERIOD":"95.592","ELEMENT_SET_NO":"999","SEMIMAJOR_AXIS":"6925.339","REV_AT_EPOCH":"2391","CLASSIFICATION_TYPE":"U","EPOCH":"2021-10-29T19:28:59.526048","RA_OF_ASC_NODE":"57.8212","TLE_LINE2":"2 48676  53.0568  57.8212 0001319  91.8529 268.2611 15.06403126 23912","EPHEMERIS_TYPE":"0","SITE":"AFETR","TLE_LINE1":"1 48676U 21044AQ  21302.81180007  .00000820  00000-0  73943-4 0  9995","COUNTRY_CODE":"US","MEAN_MOTION_DOT":"0.00000820","ARG_OF_PERICENTER":"91.8529","LAUNCH_DATE":"2021-05-26","MEAN_ANOMALY":"268.2611","OBJECT_ID":"2021-044AQ","GP_ID":"188469900","PERIAPSIS":"546.291","OBJECT_TYPE":"PAYLOAD","MEAN_MOTION":"15.06403126","OBJECT_NAME":"STARLINK-2746","ECCENTRICITY":"0.00013190","APOAPSIS":"548.117","INCLINATION":"53.0568","TIME_SYSTEM":"UTC","MEAN_MOTION_DDOT":"0.0000000000000","MEAN_ELEMENT_THEORY":"SGP4","FILE":"3191844"},{"EPHEMERIS_TYPE":"0","SITE":"AFETR","TLE_LINE2":"2 48677  53.0566  57.8364 0001115  78.7139 281.3975 15.06409220 23914","ARG_OF_PERICENTER":"78.7139","MEAN_MOTION_DOT":"-0.00001884","COUNTRY_CODE":"US","TLE_LINE1":"1 48677U 21044AR  21302.80811452 -.00001884  00000-0 -10758-3 0  9997","SEMIMAJOR_AXIS":"6925.320","ELEMENT_SET_NO":"999","REV_AT_EPOCH":"2391","EPOCH":"2021-10-29T19:23:41.094528","CLASSIFICATION_TYPE":"U","RA_OF_ASC_NODE":"57.8364","BSTAR":"-0.00010758000000","PERIOD":"95.592","DECAY_DATE":null,"REF_FRAME":"TEME","CENTER_NAME":"EARTH","NORAD_CAT_ID":"48677","RCS_SIZE":"LARGE","MEAN_MOTION_DDOT":"0.0000000000000","TIME_SYSTEM":"UTC","MEAN_ELEMENT_THEORY":"SGP4","FILE":"3191844","ECCENTRICITY":"0.00011150","OBJECT_NAME":"STARLINK-2719","INCLINATION":"53.0566","APOAPSIS":"547.957","LAUNCH_DATE":"2021-05-26","MEAN_ANOMALY":"281.3975","OBJECT_ID":"2021-044AR","MEAN_MOTION":"15.06409220","PERIAPSIS":"546.413","GP_ID":"188469207","OBJECT_TYPE":"PAYLOAD"},{"CENTER_NAME":"EARTH","NORAD_CAT_ID":"48678","RCS_SIZE":"LARGE","REF_FRAME":"TEME","PERIOD":"95.592","DECAY_DATE":null,"BSTAR":"0.00005931000000","RA_OF_ASC_NODE":"57.8570","ELEMENT_SET_NO":"999","SEMIMAJOR_AXIS":"6925.344","REV_AT_EPOCH":"2391","EPOCH":"2021-10-29T19:18:22.512672","CLASSIFICATION_TYPE":"U","MEAN_MOTION_DOT":"0.00000602","ARG_OF_PERICENTER":"91.1692","COUNTRY_CODE":"US","TLE_LINE1":"1 48678U 21044AS  21302.80442723  .00000602  00000-0  59310-4 0  9992","EPHEMERIS_TYPE":"0","SITE":"AFETR","TLE_LINE2":"2 48678  53.0572  57.8570 0001343  91.1692 268.9451 15.06401536 23919","MEAN_MOTION":"15.06401536","PERIAPSIS":"546.279","GP_ID":"188469436","OBJECT_TYPE":"PAYLOAD","MEAN_ANOMALY":"268.9451","LAUNCH_DATE":"2021-05-26","OBJECT_ID":"2021-044AS","INCLINATION":"53.0572","APOAPSIS":"548.139","ECCENTRICITY":"0.00013430","OBJECT_NAME":"STARLINK-2615","MEAN_ELEMENT_THEORY":"SGP4","FILE":"3191844","MEAN_MOTION_DDOT":"0.0000000000000","TIME_SYSTEM":"UTC"},{"TLE_LINE1":"1 48679U 21044AT  21302.80074915 -.00000840  00000-0 -37484-4 0  9991","COUNTRY_CODE":"US","ARG_OF_PERICENTER":"85.0769","MEAN_MOTION_DOT":"-0.00000840","TLE_LINE2":"2 48679  53.0576  57.8747 0001351  85.0769 275.0374 15.06396715 23911","SITE":"AFETR","EPHEMERIS_TYPE":"0","RA_OF_ASC_NODE":"57.8747","ELEMENT_SET_NO":"999","SEMIMAJOR_AXIS":"6925.359","REV_AT_EPOCH":"2391","CLASSIFICATION_TYPE":"U","EPOCH":"2021-10-29T19:13:04.726560","DECAY_DATE":null,"PERIOD":"95.592","BSTAR":"-0.00003748400000","RCS_SIZE":"LARGE","CENTER_NAME":"EARTH","NORAD_CAT_ID":"48679","REF_FRAME":"TEME","FILE":"3191844","MEAN_ELEMENT_THEORY":"SGP4","TIME_SYSTEM":"UTC","MEAN_MOTION_DDOT":"0.0000000000000","APOAPSIS":"548.159","INCLINATION":"53.0576","OBJECT_NAME":"STARLINK-2648","ECCENTRICITY":"0.00013510","PERIAPSIS":"546.288","GP_ID":"188469677","OBJECT_TYPE":"PAYLOAD","MEAN_MOTION":"15.06396715","OBJECT_ID":"2021-044AT","LAUNCH_DATE":"2021-05-26","MEAN_ANOMALY":"275.0374"},{"CENTER_NAME":"EARTH","NORAD_CAT_ID":"48680","RCS_SIZE":"LARGE","REF_FRAME":"TEME","PERIOD":"95.592","DECAY_DATE":null,"BSTAR":"-0.00005443700000","RA_OF_ASC_NODE":"58.4823","SEMIMAJOR_AXIS":"6925.350","ELEMENT_SET_NO":"999","REV_AT_EPOCH":"2389","EPOCH":"2021-10-29T15:56:41.165376","CLASSIFICATION_TYPE":"U","MEAN_MOTION_DOT":"-0.00001092","ARG_OF_PERICENTER":"86.9049","COUNTRY_CODE":"US","TLE_LINE1":"1 48680U 21044AU  21302.66436534 -.00001092  00000-0 -54437-4 0  9993","SITE":"AFETR","EPHEMERIS_TYPE":"0","TLE_LINE2":"2 48680  53.0566  58.4823 0001362  86.9049 273.2096 15.06399517 23898","MEAN_MOTION":"15.06399517","GP_ID":"188470011","PERIAPSIS":"546.272","OBJECT_TYPE":"PAYLOAD","OBJECT_ID":"2021-044AU","LAUNCH_DATE":"2021-05-26","MEAN_ANOMALY":"273.2096","INCLINATION":"53.0566","APOAPSIS":"548.158","OBJECT_NAME":"STARLINK-2649","ECCENTRICITY":"0.00013620","FILE":"3191844","MEAN_ELEMENT_THEORY":"SGP4","MEAN_MOTION_DDOT":"0.0000000000000","TIME_SYSTEM":"UTC"},{"OBJECT_ID":"2021-044AV","LAUNCH_DATE":"2021-05-26","MEAN_ANOMALY":"3.5468","OBJECT_TYPE":"PAYLOAD","GP_ID":"188469561","PERIAPSIS":"545.990","MEAN_MOTION":"15.06429403","OBJECT_NAME":"STARLINK-2725","ECCENTRICITY":"0.00016370","APOAPSIS":"548.257","INCLINATION":"53.0284","TIME_SYSTEM":"UTC","MEAN_MOTION_DDOT":"0.0000000000000","MEAN_ELEMENT_THEORY":"SGP4","FILE":"3191844","REF_FRAME":"TEME","RCS_SIZE":"LARGE","NORAD_CAT_ID":"48681","CENTER_NAME":"EARTH","BSTAR":"-0.00476020000000","DECAY_DATE":null,"PERIOD":"95.590","CLASSIFICATION_TYPE":"U","EPOCH":"2021-10-29T22:00:01.999584","SEMIMAJOR_AXIS":"6925.258","ELEMENT_SET_NO":"999","REV_AT_EPOCH":"357","RA_OF_ASC_NODE":"27.4847","TLE_LINE2":"2 48681  53.0284  27.4847 0001637  55.8297   3.5468 15.06429403  3571","SITE":"AFETR","EPHEMERIS_TYPE":"0","TLE_LINE1":"1 48681U 21044AV  21302.91668981 -.00070543  00000-0 -47602-2 0  9996","COUNTRY_CODE":"US","ARG_OF_PERICENTER":"55.8297","MEAN_MOTION_DOT":"-0.00070543"},{"REF_FRAME":"TEME","RCS_SIZE":"LARGE","NORAD_CAT_ID":"48682","CENTER_NAME":"EARTH","BSTAR":"-0.00153550000000","DECAY_DATE":null,"PERIOD":"95.592","CLASSIFICATION_TYPE":"U","EPOCH":"2021-10-29T22:00:01.999584","ELEMENT_SET_NO":"999","SEMIMAJOR_AXIS":"6925.341","REV_AT_EPOCH":"360","RA_OF_ASC_NODE":"17.3722","TLE_LINE2":"2 48682  53.0480  17.3722 0001542  67.9920 326.3614 15.06402440  3607","EPHEMERIS_TYPE":"0","SITE":"AFETR","COUNTRY_CODE":"US","TLE_LINE1":"1 48682U 21044AW  21302.91668981 -.00023081  00000-0 -15355-2 0  9992","ARG_OF_PERICENTER":"67.9920","MEAN_MOTION_DOT":"-0.00023081","MEAN_ANOMALY":"326.3614","LAUNCH_DATE":"2021-05-26","OBJECT_ID":"2021-044AW","OBJECT_TYPE":"PAYLOAD","PERIAPSIS":"546.138","GP_ID":"188469790","MEAN_MOTION":"15.06402440","ECCENTRICITY":"0.00015420","OBJECT_NAME":"STARLINK-2743","APOAPSIS":"548.274","INCLINATION":"53.0480","TIME_SYSTEM":"UTC","MEAN_MOTION_DDOT":"0.0000000000000","MEAN_ELEMENT_THEORY":"SGP4","FILE":"3191844"}];
